SL-16 R/B               
1 22566U 93016B   25360.48737240  .00000244  00000+0  14971-3 0  9995
2 22566  71.0084   8.9290 0008039  70.2409 289.9580 14.15293524691815
COSMOS 2242             
1 22626U 93024A   25360.94824181  .00002967  00000+0  26060-3 0  9999
2 22626  82.5196 336.2632 0016081 183.7087 176.4019 14.96166233769513
SL-16 R/B               
1 22803U 93059B   25360.91910495  .00000300  00000+0  17230-3 0  9993
2 22803  70.9887 164.5852 0018664 315.6592  44.3036 14.17217124669228
ARIANE 40 R/B           
1 22830U 93061H   25360.93408166  .00000326  00000+0  13521-3 0  9992
2 22830  98.5058  66.2047 0011589 136.0435 224.1673 14.32811077683683
COSMOS 2278             
1 23087U 94023A   25360.96383419  .00000146  00000+0  10110-3 0  9993
2 23087  71.0535 327.2506 0007740 153.8668 206.2847 14.14349061634525
SL-16 R/B               
1 23088U 94023B   25360.90198648 -.00000196  00000+0 -76788-4 0  9997
2 23088  70.9974 223.7454 0002162   2.3915 357.7218 14.14999072635796
SL-16 R/B               
1 23343U 94074B   25360.32887816  .00000493  00000+0  72913-4 0  9999
2 23343  97.7189  29.0925 0008040  98.6749 272.1119 14.79304560676405
SL-16 R/B               
1 23405U 94077B   25360.69999859 -.00000217  00000+0 -86235-4 0  9990
2 23405  70.9822 146.0450 0005048 273.7923  86.2623 14.15551765605901
ARIANE 40+ R/B          
1 23561U 95021B   25360.71514172  .00000336  00000+0  12111-3 0  9998
2 23561  98.4634  68.1345 0006729  10.8405  98.2130 14.39705965608749
SL-16 R/B               
1 23705U 95058B   25360.91539616 -.00000076  00000+0 -14281-4 0  9994
2 23705  71.0216 333.0419 0014545 236.5068 123.4665 14.15481311557551
SL-16 R/B               
1 24298U 96051B   25360.15728938 -.00000011  00000+0  20996-4 0  9997
2 24298  70.7596 330.8823 0019472 244.9044 115.0056 14.12397638511265
ORBVIEW 2 (SEASTAR)     
1 24883U 97037A   25360.85642240  .00000365  00000+0  14322-3 0  9996
2 24883  98.8463 158.2868 0001204 277.5248  82.5799 14.35427190498024
