CCSDS_OMM_VERS = 2.0
CREATION_DATE  = 
ORIGINATOR     = 

OBJECT_NAME    = SL-16 R/B
OBJECT_ID      = 1993-016B
CENTER_NAME    = EARTH
REF_FRAME      = TEME
TIME_SYSTEM    = UTC
MEAN_ELEMENT_THEORY = SGP/SGP4

EPOCH          = 2025-12-26T11:41:48.975360
MEAN_MOTION    = 14.15293524
ECCENTRICITY   = .0008039
INCLINATION    = 71.0084
RA_OF_ASC_NODE = 8.9290
ARG_OF_PERICENTER = 70.2409
MEAN_ANOMALY   = 289.9580

EPHEMERIS_TYPE = 0
CLASSIFICATION_TYPE = U
NORAD_CAT_ID   = 22566
ELEMENT_SET_NO = 999
REV_AT_EPOCH   = 69181
BSTAR          = .14971E-3
MEAN_MOTION_DOT = .244E-5
MEAN_MOTION_DDOT = 0

CCSDS_OMM_VERS = 2.0
CREATION_DATE  = 
ORIGINATOR     = 

OBJECT_NAME    = COSMOS 2242
OBJECT_ID      = 1993-024A
CENTER_NAME    = EARTH
REF_FRAME      = TEME
TIME_SYSTEM    = UTC
MEAN_ELEMENT_THEORY = SGP/SGP4

EPOCH          = 2025-12-26T22:45:28.092384
MEAN_MOTION    = 14.96166233
ECCENTRICITY   = .00160818
INCLINATION    = 82.5196
RA_OF_ASC_NODE = 336.2632
ARG_OF_PERICENTER = 183.7087
MEAN_ANOMALY   = 176.4019

EPHEMERIS_TYPE = 0
CLASSIFICATION_TYPE = U
NORAD_CAT_ID   = 22626
ELEMENT_SET_NO = 999
REV_AT_EPOCH   = 76951
BSTAR          = .26060472E-3
MEAN_MOTION_DOT = .2967E-4
MEAN_MOTION_DDOT = 0

CCSDS_OMM_VERS = 2.0
CREATION_DATE  = 
ORIGINATOR     = 

OBJECT_NAME    = SL-16 R/B
OBJECT_ID      = 1993-059B
CENTER_NAME    = EARTH
REF_FRAME      = TEME
TIME_SYSTEM    = UTC
MEAN_ELEMENT_THEORY = SGP/SGP4

EPOCH          = 2025-12-26T22:03:30.667680
MEAN_MOTION    = 14.17217124
ECCENTRICITY   = .00186649
INCLINATION    = 70.9887
RA_OF_ASC_NODE = 164.5852
ARG_OF_PERICENTER = 315.6592
MEAN_ANOMALY   = 44.3036

EPHEMERIS_TYPE = 0
CLASSIFICATION_TYPE = U
NORAD_CAT_ID   = 22803
ELEMENT_SET_NO = 999
REV_AT_EPOCH   = 66922
BSTAR          = .17230152E-3
MEAN_MOTION_DOT = .3E-5
MEAN_MOTION_DDOT = 0

CCSDS_OMM_VERS = 2.0
CREATION_DATE  = 
ORIGINATOR     = 

OBJECT_NAME    = ARIANE 40 R/B
OBJECT_ID      = 1993-061H
CENTER_NAME    = EARTH
REF_FRAME      = TEME
TIME_SYSTEM    = UTC
MEAN_ELEMENT_THEORY = SGP/SGP4

EPOCH          = 2025-12-26T22:25:04.655424
MEAN_MOTION    = 14.32811077
ECCENTRICITY   = .00115896
INCLINATION    = 98.5058
RA_OF_ASC_NODE = 66.2047
ARG_OF_PERICENTER = 136.0435
MEAN_ANOMALY   = 224.1673

EPHEMERIS_TYPE = 0
CLASSIFICATION_TYPE = U
NORAD_CAT_ID   = 22830
ELEMENT_SET_NO = 999
REV_AT_EPOCH   = 68368
BSTAR          = .13521115E-3
MEAN_MOTION_DOT = .326E-5
MEAN_MOTION_DDOT = 0

CCSDS_OMM_VERS = 2.0
CREATION_DATE  = 
ORIGINATOR     = 

OBJECT_NAME    = COSMOS 2278
OBJECT_ID      = 1994-023A
CENTER_NAME    = EARTH
REF_FRAME      = TEME
TIME_SYSTEM    = UTC
MEAN_ELEMENT_THEORY = SGP/SGP4

EPOCH          = 2025-12-26T23:07:55.274016
MEAN_MOTION    = 14.14349061
ECCENTRICITY   = .00077406
INCLINATION    = 71.0535
RA_OF_ASC_NODE = 327.2506
ARG_OF_PERICENTER = 153.8668
MEAN_ANOMALY   = 206.2847

EPHEMERIS_TYPE = 0
CLASSIFICATION_TYPE = U
NORAD_CAT_ID   = 23087
ELEMENT_SET_NO = 999
REV_AT_EPOCH   = 63452
BSTAR          = .10109828E-3
MEAN_MOTION_DOT = .146E-5
MEAN_MOTION_DDOT = 0

CCSDS_OMM_VERS = 2.0
CREATION_DATE  = 
ORIGINATOR     = 

OBJECT_NAME    = SL-16 R/B
OBJECT_ID      = 1994-023B
CENTER_NAME    = EARTH
REF_FRAME      = TEME
TIME_SYSTEM    = UTC
MEAN_ELEMENT_THEORY = SGP/SGP4

EPOCH          = 2025-12-26T21:38:51.631872
MEAN_MOTION    = 14.14999072
ECCENTRICITY   = .00021627
INCLINATION    = 70.9974
RA_OF_ASC_NODE = 223.7454
ARG_OF_PERICENTER = 2.3915
MEAN_ANOMALY   = 357.7218

EPHEMERIS_TYPE = 0
CLASSIFICATION_TYPE = U
NORAD_CAT_ID   = 23088
ELEMENT_SET_NO = 999
REV_AT_EPOCH   = 63579
BSTAR          = -.76787835E-4
MEAN_MOTION_DOT = -.196E-5
MEAN_MOTION_DDOT = 0

CCSDS_OMM_VERS = 2.0
CREATION_DATE  = 
ORIGINATOR     = 

OBJECT_NAME    = SL-16 R/B
OBJECT_ID      = 1994-074B
CENTER_NAME    = EARTH
REF_FRAME      = TEME
TIME_SYSTEM    = UTC
MEAN_ELEMENT_THEORY = SGP/SGP4

EPOCH          = 2025-12-26T07:53:35.073024
MEAN_MOTION    = 14.79304560
ECCENTRICITY   = .000804
INCLINATION    = 97.7189
RA_OF_ASC_NODE = 29.0925
ARG_OF_PERICENTER = 98.6749
MEAN_ANOMALY   = 272.1119

EPHEMERIS_TYPE = 0
CLASSIFICATION_TYPE = U
NORAD_CAT_ID   = 23343
ELEMENT_SET_NO = 999
REV_AT_EPOCH   = 67640
BSTAR          = .72913E-4
MEAN_MOTION_DOT = .493E-5
MEAN_MOTION_DDOT = 0

CCSDS_OMM_VERS = 2.0
CREATION_DATE  = 
ORIGINATOR     = 

OBJECT_NAME    = SL-16 R/B
OBJECT_ID      = 1994-077B
CENTER_NAME    = EARTH
REF_FRAME      = TEME
TIME_SYSTEM    = UTC
MEAN_ELEMENT_THEORY = SGP/SGP4

EPOCH          = 2025-12-26T16:47:59.878176
MEAN_MOTION    = 14.15551765
ECCENTRICITY   = .00050481
INCLINATION    = 70.9822
RA_OF_ASC_NODE = 146.0450
ARG_OF_PERICENTER = 273.7923
MEAN_ANOMALY   = 86.2623

EPHEMERIS_TYPE = 0
CLASSIFICATION_TYPE = U
NORAD_CAT_ID   = 23405
ELEMENT_SET_NO = 999
REV_AT_EPOCH   = 60590
BSTAR          = -.86234979E-4
MEAN_MOTION_DOT = -.217E-5
MEAN_MOTION_DDOT = 0

CCSDS_OMM_VERS = 2.0
CREATION_DATE  = 
ORIGINATOR     = 

OBJECT_NAME    = ARIANE 40+ R/B
OBJECT_ID      = 1995-021B
CENTER_NAME    = EARTH
REF_FRAME      = TEME
TIME_SYSTEM    = UTC
MEAN_ELEMENT_THEORY = SGP/SGP4

EPOCH          = 2025-12-26T17:09:48.244608
MEAN_MOTION    = 14.39705965
ECCENTRICITY   = .00067291
INCLINATION    = 98.4634
RA_OF_ASC_NODE = 68.1345
ARG_OF_PERICENTER = 10.8405
MEAN_ANOMALY   = 98.2130

EPHEMERIS_TYPE = 0
CLASSIFICATION_TYPE = U
NORAD_CAT_ID   = 23561
ELEMENT_SET_NO = 999
REV_AT_EPOCH   = 60874
BSTAR          = .12110566E-3
MEAN_MOTION_DOT = .336E-5
MEAN_MOTION_DDOT = 0

CCSDS_OMM_VERS = 2.0
CREATION_DATE  = 
ORIGINATOR     = 

OBJECT_NAME    = SL-16 R/B
OBJECT_ID      = 1995-058B
CENTER_NAME    = EARTH
REF_FRAME      = TEME
TIME_SYSTEM    = UTC
MEAN_ELEMENT_THEORY = SGP/SGP4

EPOCH          = 2025-12-26T21:58:10.228224
MEAN_MOTION    = 14.15481311
ECCENTRICITY   = .00145458
INCLINATION    = 71.0216
RA_OF_ASC_NODE = 333.0419
ARG_OF_PERICENTER = 236.5068
MEAN_ANOMALY   = 123.4665

EPHEMERIS_TYPE = 0
CLASSIFICATION_TYPE = U
NORAD_CAT_ID   = 23705
ELEMENT_SET_NO = 999
REV_AT_EPOCH   = 55755
BSTAR          = -.14281123E-4
MEAN_MOTION_DOT = -.76E-6
MEAN_MOTION_DDOT = 0

CCSDS_OMM_VERS = 2.0
CREATION_DATE  = 
ORIGINATOR     = 

OBJECT_NAME    = SL-16 R/B
OBJECT_ID      = 1996-051B
CENTER_NAME    = EARTH
REF_FRAME      = TEME
TIME_SYSTEM    = UTC
MEAN_ELEMENT_THEORY = SGP/SGP4

EPOCH          = 2025-12-26T03:46:29.802432
MEAN_MOTION    = 14.12397638
ECCENTRICITY   = .00194728
INCLINATION    = 70.7596
RA_OF_ASC_NODE = 330.8823
ARG_OF_PERICENTER = 244.9044
MEAN_ANOMALY   = 115.0056

EPHEMERIS_TYPE = 0
CLASSIFICATION_TYPE = U
NORAD_CAT_ID   = 24298
ELEMENT_SET_NO = 999
REV_AT_EPOCH   = 51126
BSTAR          = .20996161E-4
MEAN_MOTION_DOT = -.11E-6
MEAN_MOTION_DDOT = 0

CCSDS_OMM_VERS = 2.0
CREATION_DATE  = 
ORIGINATOR     = 

OBJECT_NAME    = ORBVIEW 2 (SEASTAR)
OBJECT_ID      = 1997-037A
CENTER_NAME    = EARTH
REF_FRAME      = TEME
TIME_SYSTEM    = UTC
MEAN_ELEMENT_THEORY = SGP/SGP4

EPOCH          = 2025-12-26T20:33:14.895360
MEAN_MOTION    = 14.35427190
ECCENTRICITY   = .00012048
INCLINATION    = 98.8463
RA_OF_ASC_NODE = 158.2868
ARG_OF_PERICENTER = 277.5248
MEAN_ANOMALY   = 82.5799

EPHEMERIS_TYPE = 0
CLASSIFICATION_TYPE = U
NORAD_CAT_ID   = 24883
ELEMENT_SET_NO = 999
REV_AT_EPOCH   = 49802
BSTAR          = .14322364E-3
MEAN_MOTION_DOT = .365E-5
MEAN_MOTION_DDOT = 0

